ONEWEB-0602             
1 54666U 22166AA  26059.07163501  .00000086  00000+0  17786-3 0  9994
2 54666  87.9167 265.7662 0001378  97.6582 262.4709 13.21826930157139
ONEWEB-0603             
1 54667U 22166AB  26059.07739099  .00000015  00000+0  46022-5 0  9995
2 54667  87.9177 265.7106 0001518  84.6256 275.5051 13.21827022157064
ONEWEB-0604             
1 54668U 22166AC  26059.06587437  .00000064  00000+0  12232-3 0  9990
2 54668  87.9177 265.7272 0001672  91.6242 268.5084 13.21826716157026
ONEWEB-0605             
1 54669U 22166AD  26059.05928822  .00000088  00000+0  18193-3 0  9995
2 54669  87.9167 265.7530 0001560  68.2992 291.8308 13.21827710157091
ONEWEB-0606             
1 54670U 22166AE  26059.08069591  .00000017  00000+0  88078-5 0  9992
2 54670  87.9167 265.7619 0001789  91.0219 269.1120 13.21826382157151
ONEWEB-0607             
1 54671U 22166AF  26059.27487943  .00000118  00000+0  25299-3 0  9995
2 54671  87.9168 265.6869 0001459  87.8397 272.2904 13.21825693157152
ONEWEB-0608             
1 54672U 22166AG  26059.28144898  .00000102  00000+0  21568-3 0  9994
2 54672  87.9177 265.6788 0001371  71.4398 288.6885 13.21826893157169
ONEWEB-0610             
1 54673U 22166AH  26059.11029797  .00000091  00000+0  18818-3 0  9998
2 54673  87.9167 265.7386 0001125  67.5666 292.5587 13.21826369157043
ONEWEB-0611             
1 54674U 22166AJ  26059.10374166 -.00000001  00000+0 -34569-4 0  9996
2 54674  87.9164 265.7368 0001712  93.4005 266.7325 13.21827319157036
ONEWEB-0612             
1 54675U 22166AK  26059.26829821  .00000176  00000+0  39491-3 0  9996
2 54675  87.9176 265.6866 0001496  86.7446 273.3859 13.21826475157044
ONEWEB-0615             
1 54676U 22166AL  26059.09715316  .00000009  00000+0 -88907-5 0  9995
2 54676  87.9171 265.7457 0001584  88.9583 271.1732 13.21825394157035
ONEWEB-0655             
1 54677U 22166AM  26059.07247002  .00000053  00000+0  96696-4 0  9997
2 54677  87.9167 265.7529 0001361  93.3984 266.7305 13.21825625157021
ONEWEB-0659             
1 54678U 22166AN  26059.08892001 -.00000059  00000+0 -17517-3 0  9996
2 54678  87.9168 265.7500 0001689  88.6897 271.4431 13.21826472157119
ONEWEB-0685             
1 54679U 22166AP  26059.08922518  .00000015  00000+0  39852-5 0  9992
2 54679  87.9164 265.7455 0001409  87.3835 272.7460 13.21811891157006
ONEWEB-0712             
1 54680U 22166AQ  26059.23236667  .00000024  00000+0  28417-4 0  9998
2 54680  87.8999 250.4500 0001357 111.5816 248.5460 13.16593675157727
ONEWEB-0714             
1 54681U 22166AR  26059.09548992  .00000038  00000+0  60306-4 0  9998
2 54681  87.9168 265.7388 0001373  90.2722 269.8569 13.21827067157128
ONEWEB-0532             
1 55140U 23004A   26059.14088349  .00000133  00000+0  30972-3 0  9993
2 55140  87.9141  27.5181 0002078  72.6127 287.5231 13.17649513153224
