[{"OBJECT_NAME":"ONEWEB-0602","OBJECT_ID":"2022-166AA","EPOCH":"2026-02-28T01:43:09.264864","MEAN_MOTION":13.2182693,"ECCENTRICITY":0.00013787,"INCLINATION":87.9167,"RA_OF_ASC_NODE":265.7662,"ARG_OF_PERICENTER":97.6582,"MEAN_ANOMALY":262.4709,"EPHEMERIS_TYPE":0,"CLASSIFICATION_TYPE":"U","NORAD_CAT_ID":54666,"ELEMENT_SET_NO":999,"REV_AT_EPOCH":15713,"BSTAR":0.00017786207,"MEAN_MOTION_DOT":8.6e-7,"MEAN_MOTION_DDOT":0},{"OBJECT_NAME":"ONEWEB-0603","OBJECT_ID":"2022-166AB","EPOCH":"2026-02-28T01:51:26.581536","MEAN_MOTION":13.21827022,"ECCENTRICITY":0.00015186,"INCLINATION":87.9177,"RA_OF_ASC_NODE":265.7106,"ARG_OF_PERICENTER":84.6256,"MEAN_ANOMALY":275.5051,"EPHEMERIS_TYPE":0,"CLASSIFICATION_TYPE":"U","NORAD_CAT_ID":54667,"ELEMENT_SET_NO":999,"REV_AT_EPOCH":15706,"BSTAR":4.602242e-6,"MEAN_MOTION_DOT":1.5e-7,"MEAN_MOTION_DDOT":0},{"OBJECT_NAME":"ONEWEB-0604","OBJECT_ID":"2022-166AC","EPOCH":"2026-02-28T01:34:51.545568","MEAN_MOTION":13.21826716,"ECCENTRICITY":0.00016721,"INCLINATION":87.9177,"RA_OF_ASC_NODE":265.7272,"ARG_OF_PERICENTER":91.6242,"MEAN_ANOMALY":268.5084,"EPHEMERIS_TYPE":0,"CLASSIFICATION_TYPE":"U","NORAD_CAT_ID":54668,"ELEMENT_SET_NO":999,"REV_AT_EPOCH":15702,"BSTAR":0.00012231824,"MEAN_MOTION_DOT":6.4e-7,"MEAN_MOTION_DDOT":0},{"OBJECT_NAME":"ONEWEB-0605","OBJECT_ID":"2022-166AD","EPOCH":"2026-02-28T01:25:22.502208","MEAN_MOTION":13.2182771,"ECCENTRICITY":0.00015604,"INCLINATION":87.9167,"RA_OF_ASC_NODE":265.753,"ARG_OF_PERICENTER":68.2992,"MEAN_ANOMALY":291.8308,"EPHEMERIS_TYPE":0,"CLASSIFICATION_TYPE":"U","NORAD_CAT_ID":54669,"ELEMENT_SET_NO":999,"REV_AT_EPOCH":15709,"BSTAR":0.00018192817,"MEAN_MOTION_DOT":8.8e-7,"MEAN_MOTION_DDOT":0},{"OBJECT_NAME":"ONEWEB-0606","OBJECT_ID":"2022-166AE","EPOCH":"2026-02-28T01:56:12.126624","MEAN_MOTION":13.21826382,"ECCENTRICITY":0.00017895,"INCLINATION":87.9167,"RA_OF_ASC_NODE":265.7619,"ARG_OF_PERICENTER":91.0219,"MEAN_ANOMALY":269.112,"EPHEMERIS_TYPE":0,"CLASSIFICATION_TYPE":"U","NORAD_CAT_ID":54670,"ELEMENT_SET_NO":999,"REV_AT_EPOCH":15715,"BSTAR":8.807779e-6,"MEAN_MOTION_DOT":1.7e-7,"MEAN_MOTION_DDOT":0},{"OBJECT_NAME":"ONEWEB-0607","OBJECT_ID":"2022-166AF","EPOCH":"2026-02-28T06:35:49.582752","MEAN_MOTION":13.21825693,"ECCENTRICITY":0.00014598,"INCLINATION":87.9168,"RA_OF_ASC_NODE":265.6869,"ARG_OF_PERICENTER":87.8397,"MEAN_ANOMALY":272.2904,"EPHEMERIS_TYPE":0,"CLASSIFICATION_TYPE":"U","NORAD_CAT_ID":54671,"ELEMENT_SET_NO":999,"REV_AT_EPOCH":15715,"BSTAR":0.00025298857,"MEAN_MOTION_DOT":1.18e-6,"MEAN_MOTION_DDOT":0},{"OBJECT_NAME":"ONEWEB-0608","OBJECT_ID":"2022-166AG","EPOCH":"2026-02-28T06:45:17.191872","MEAN_MOTION":13.21826893,"ECCENTRICITY":0.00013719,"INCLINATION":87.9177,"RA_OF_ASC_NODE":265.6788,"ARG_OF_PERICENTER":71.4398,"MEAN_ANOMALY":288.6885,"EPHEMERIS_TYPE":0,"CLASSIFICATION_TYPE":"U","NORAD_CAT_ID":54672,"ELEMENT_SET_NO":999,"REV_AT_EPOCH":15716,"BSTAR":0.00021567959,"MEAN_MOTION_DOT":1.02e-6,"MEAN_MOTION_DDOT":0},{"OBJECT_NAME":"ONEWEB-0610","OBJECT_ID":"2022-166AH","EPOCH":"2026-02-28T02:38:49.744608","MEAN_MOTION":13.21826369,"ECCENTRICITY":0.00011255,"INCLINATION":87.9167,"RA_OF_ASC_NODE":265.7386,"ARG_OF_PERICENTER":67.5666,"MEAN_ANOMALY":292.5587,"EPHEMERIS_TYPE":0,"CLASSIFICATION_TYPE":"U","NORAD_CAT_ID":54673,"ELEMENT_SET_NO":999,"REV_AT_EPOCH":15704,"BSTAR":0.00018817535,"MEAN_MOTION_DOT":9.1e-7,"MEAN_MOTION_DDOT":0},{"OBJECT_NAME":"ONEWEB-0611","OBJECT_ID":"2022-166AJ","EPOCH":"2026-02-28T02:29:23.279424","MEAN_MOTION":13.21827319,"ECCENTRICITY":0.00017123,"INCLINATION":87.9164,"RA_OF_ASC_NODE":265.7368,"ARG_OF_PERICENTER":93.4005,"MEAN_ANOMALY":266.7325,"EPHEMERIS_TYPE":0,"CLASSIFICATION_TYPE":"U","NORAD_CAT_ID":54674,"ELEMENT_SET_NO":999,"REV_AT_EPOCH":15703,"BSTAR":-3.4569403e-5,"MEAN_MOTION_DOT":-1.0e-8,"MEAN_MOTION_DDOT":0},{"OBJECT_NAME":"ONEWEB-0612","OBJECT_ID":"2022-166AK","EPOCH":"2026-02-28T06:26:20.965344","MEAN_MOTION":13.21826475,"ECCENTRICITY":0.00014964,"INCLINATION":87.9176,"RA_OF_ASC_NODE":265.6866,"ARG_OF_PERICENTER":86.7446,"MEAN_ANOMALY":273.3859,"EPHEMERIS_TYPE":0,"CLASSIFICATION_TYPE":"U","NORAD_CAT_ID":54675,"ELEMENT_SET_NO":999,"REV_AT_EPOCH":15704,"BSTAR":0.0003949125,"MEAN_MOTION_DOT":1.76e-6,"MEAN_MOTION_DDOT":0},{"OBJECT_NAME":"ONEWEB-0615","OBJECT_ID":"2022-166AL","EPOCH":"2026-02-28T02:19:54.033024","MEAN_MOTION":13.21825394,"ECCENTRICITY":0.00015841,"INCLINATION":87.9171,"RA_OF_ASC_NODE":265.7457,"ARG_OF_PERICENTER":88.9583,"MEAN_ANOMALY":271.1732,"EPHEMERIS_TYPE":0,"CLASSIFICATION_TYPE":"U","NORAD_CAT_ID":54676,"ELEMENT_SET_NO":999,"REV_AT_EPOCH":15703,"BSTAR":-8.890722e-6,"MEAN_MOTION_DOT":9.0e-8,"MEAN_MOTION_DDOT":0},{"OBJECT_NAME":"ONEWEB-0655","OBJECT_ID":"2022-166AM","EPOCH":"2026-02-28T01:44:21.409728","MEAN_MOTION":13.21825625,"ECCENTRICITY":0.0001361,"INCLINATION":87.9167,"RA_OF_ASC_NODE":265.7529,"ARG_OF_PERICENTER":93.3984,"MEAN_ANOMALY":266.7305,"EPHEMERIS_TYPE":0,"CLASSIFICATION_TYPE":"U","NORAD_CAT_ID":54677,"ELEMENT_SET_NO":999,"REV_AT_EPOCH":15702,"BSTAR":9.6696235e-5,"MEAN_MOTION_DOT":5.3e-7,"MEAN_MOTION_DDOT":0},{"OBJECT_NAME":"ONEWEB-0659","OBJECT_ID":"2022-166AN","EPOCH":"2026-02-28T02:08:02.688864","MEAN_MOTION":13.21826472,"ECCENTRICITY":0.00016895,"INCLINATION":87.9168,"RA_OF_ASC_NODE":265.75,"ARG_OF_PERICENTER":88.6897,"MEAN_ANOMALY":271.4431,"EPHEMERIS_TYPE":0,"CLASSIFICATION_TYPE":"U","NORAD_CAT_ID":54678,"ELEMENT_SET_NO":999,"REV_AT_EPOCH":15711,"BSTAR":-0.00017516908,"MEAN_MOTION_DOT":-5.9e-7,"MEAN_MOTION_DDOT":0},{"OBJECT_NAME":"ONEWEB-0685","OBJECT_ID":"2022-166AP","EPOCH":"2026-02-28T02:08:29.055552","MEAN_MOTION":13.21811891,"ECCENTRICITY":0.00014092,"INCLINATION":87.9164,"RA_OF_ASC_NODE":265.7455,"ARG_OF_PERICENTER":87.3835,"MEAN_ANOMALY":272.746,"EPHEMERIS_TYPE":0,"CLASSIFICATION_TYPE":"U","NORAD_CAT_ID":54679,"ELEMENT_SET_NO":999,"REV_AT_EPOCH":15700,"BSTAR":3.985185e-6,"MEAN_MOTION_DOT":1.5e-7,"MEAN_MOTION_DDOT":0},{"OBJECT_NAME":"ONEWEB-0712","OBJECT_ID":"2022-166AQ","EPOCH":"2026-02-28T05:34:36.480288","MEAN_MOTION":13.16593675,"ECCENTRICITY":0.0001357,"INCLINATION":87.8999,"RA_OF_ASC_NODE":250.45,"ARG_OF_PERICENTER":111.5816,"MEAN_ANOMALY":248.546,"EPHEMERIS_TYPE":0,"CLASSIFICATION_TYPE":"U","NORAD_CAT_ID":54680,"ELEMENT_SET_NO":999,"REV_AT_EPOCH":15772,"BSTAR":2.8417038e-5,"MEAN_MOTION_DOT":2.4e-7,"MEAN_MOTION_DDOT":0},{"OBJECT_NAME":"ONEWEB-0714","OBJECT_ID":"2022-166AR","EPOCH":"2026-02-28T02:17:30.329088","MEAN_MOTION":13.21827067,"ECCENTRICITY":0.0001373,"INCLINATION":87.9168,"RA_OF_ASC_NODE":265.7388,"ARG_OF_PERICENTER":90.2722,"MEAN_ANOMALY":269.8569,"EPHEMERIS_TYPE":0,"CLASSIFICATION_TYPE":"U","NORAD_CAT_ID":54681,"ELEMENT_SET_NO":999,"REV_AT_EPOCH":15712,"BSTAR":6.0306168e-5,"MEAN_MOTION_DOT":3.8e-7,"MEAN_MOTION_DDOT":0},{"OBJECT_NAME":"ONEWEB-0532","OBJECT_ID":"2023-004A","EPOCH":"2026-02-28T03:22:52.333536","MEAN_MOTION":13.17649513,"ECCENTRICITY":0.00020786,"INCLINATION":87.9141,"RA_OF_ASC_NODE":27.5181,"ARG_OF_PERICENTER":72.6127,"MEAN_ANOMALY":287.5231,"EPHEMERIS_TYPE":0,"CLASSIFICATION_TYPE":"U","NORAD_CAT_ID":55140,"ELEMENT_SET_NO":999,"REV_AT_EPOCH":15322,"BSTAR":0.00030972052,"MEAN_MOTION_DOT":1.33e-6,"MEAN_MOTION_DDOT":0}]
